<?xml version="1.0" encoding="UTF-8"?>
<ndm xmlns:xsi="http://www.w3.org/2001/XMLSchema-instance" xsi:noNamespaceSchemaLocation="https://sanaregistry.org/r/ndmxml_unqualified/ndmxml-2.0.0-master-2.0.xsd">
<omm id="CCSDS_OMM_VERS" version="2.0">
<header><CREATION_DATE/><ORIGINATOR/></header><body><segment><metadata><OBJECT_NAME>SL-8 R/B</OBJECT_NAME><OBJECT_ID>1992-020B</OBJECT_ID><CENTER_NAME>EARTH</CENTER_NAME><REF_FRAME>TEME</REF_FRAME><TIME_SYSTEM>UTC</TIME_SYSTEM><MEAN_ELEMENT_THEORY>SGP4</MEAN_ELEMENT_THEORY></metadata><data><meanElements><EPOCH>2023-02-03T14:05:24.470592</EPOCH><MEAN_MOTION>13.75322571</MEAN_MOTION><ECCENTRICITY>.00284</ECCENTRICITY><INCLINATION>82.9288</INCLINATION><RA_OF_ASC_NODE>272.9754</RA_OF_ASC_NODE><ARG_OF_PERICENTER>209.8575</ARG_OF_PERICENTER><MEAN_ANOMALY>159.9196</MEAN_ANOMALY></meanElements><tleParameters><EPHEMERIS_TYPE>0</EPHEMERIS_TYPE><CLASSIFICATION_TYPE>U</CLASSIFICATION_TYPE><NORAD_CAT_ID>21938</NORAD_CAT_ID><ELEMENT_SET_NO>999</ELEMENT_SET_NO><REV_AT_EPOCH>54578</REV_AT_EPOCH><BSTAR>.10511E-3</BSTAR><MEAN_MOTION_DOT>.116E-5</MEAN_MOTION_DOT><MEAN_MOTION_DDOT>0</MEAN_MOTION_DDOT></tleParameters></data></segment></body></omm>
<omm id="CCSDS_OMM_VERS" version="2.0">
<header><CREATION_DATE/><ORIGINATOR/></header><body><segment><metadata><OBJECT_NAME>COSMOS 2219</OBJECT_NAME><OBJECT_ID>1992-076A</OBJECT_ID><CENTER_NAME>EARTH</CENTER_NAME><REF_FRAME>TEME</REF_FRAME><TIME_SYSTEM>UTC</TIME_SYSTEM><MEAN_ELEMENT_THEORY>SGP4</MEAN_ELEMENT_THEORY></metadata><data><meanElements><EPOCH>2023-02-02T23:32:59.910144</EPOCH><MEAN_MOTION>14.13725592</MEAN_MOTION><ECCENTRICITY>.0017012</ECCENTRICITY><INCLINATION>71.0583</INCLINATION><RA_OF_ASC_NODE>221.0859</RA_OF_ASC_NODE><ARG_OF_PERICENTER>132.1213</ARG_OF_PERICENTER><MEAN_ANOMALY>228.1359</MEAN_ANOMALY></meanElements><tleParameters><EPHEMERIS_TYPE>0</EPHEMERIS_TYPE><CLASSIFICATION_TYPE>U</CLASSIFICATION_TYPE><NORAD_CAT_ID>22219</NORAD_CAT_ID><ELEMENT_SET_NO>999</ELEMENT_SET_NO><REV_AT_EPOCH>55855</REV_AT_EPOCH><BSTAR>.2239E-3</BSTAR><MEAN_MOTION_DOT>.377E-5</MEAN_MOTION_DOT><MEAN_MOTION_DDOT>0</MEAN_MOTION_DDOT></tleParameters></data></segment></body></omm>
<omm id="CCSDS_OMM_VERS" version="2.0">
<header><CREATION_DATE/><ORIGINATOR/></header><body><segment><metadata><OBJECT_NAME>SL-16 R/B</OBJECT_NAME><OBJECT_ID>1992-076B</OBJECT_ID><CENTER_NAME>EARTH</CENTER_NAME><REF_FRAME>TEME</REF_FRAME><TIME_SYSTEM>UTC</TIME_SYSTEM><MEAN_ELEMENT_THEORY>SGP4</MEAN_ELEMENT_THEORY></metadata><data><meanElements><EPOCH>2023-02-03T09:57:45.185184</EPOCH><MEAN_MOTION>14.16531125</MEAN_MOTION><ECCENTRICITY>.0012376</ECCENTRICITY><INCLINATION>70.9998</INCLINATION><RA_OF_ASC_NODE>48.6320</RA_OF_ASC_NODE><ARG_OF_PERICENTER>6.7772</ARG_OF_PERICENTER><MEAN_ANOMALY>94.1049</MEAN_ANOMALY></meanElements><tleParameters><EPHEMERIS_TYPE>0</EPHEMERIS_TYPE><CLASSIFICATION_TYPE>U</CLASSIFICATION_TYPE><NORAD_CAT_ID>22220</NORAD_CAT_ID><ELEMENT_SET_NO>999</ELEMENT_SET_NO><REV_AT_EPOCH>56175</REV_AT_EPOCH><BSTAR>-.7574E-4</BSTAR><MEAN_MOTION_DOT>-.199E-5</MEAN_MOTION_DOT><MEAN_MOTION_DDOT>0</MEAN_MOTION_DDOT></tleParameters></data></segment></body></omm>
<omm id="CCSDS_OMM_VERS" version="2.0">
<header><CREATION_DATE/><ORIGINATOR/></header><body><segment><metadata><OBJECT_NAME>COSMOS 2221</OBJECT_NAME><OBJECT_ID>1992-080A</OBJECT_ID><CENTER_NAME>EARTH</CENTER_NAME><REF_FRAME>TEME</REF_FRAME><TIME_SYSTEM>UTC</TIME_SYSTEM><MEAN_ELEMENT_THEORY>SGP4</MEAN_ELEMENT_THEORY></metadata><data><meanElements><EPOCH>2023-02-03T03:24:31.884480</EPOCH><MEAN_MOTION>14.89085542</MEAN_MOTION><ECCENTRICITY>.0017</ECCENTRICITY><INCLINATION>82.5064</INCLINATION><RA_OF_ASC_NODE>275.4333</RA_OF_ASC_NODE><ARG_OF_PERICENTER>16.6268</ARG_OF_PERICENTER><MEAN_ANOMALY>343.5504</MEAN_ANOMALY></meanElements><tleParameters><EPHEMERIS_TYPE>0</EPHEMERIS_TYPE><CLASSIFICATION_TYPE>U</CLASSIFICATION_TYPE><NORAD_CAT_ID>22236</NORAD_CAT_ID><ELEMENT_SET_NO>999</ELEMENT_SET_NO><REV_AT_EPOCH>61215</REV_AT_EPOCH><BSTAR>.15148E-3</BSTAR><MEAN_MOTION_DOT>.1455E-4</MEAN_MOTION_DOT><MEAN_MOTION_DDOT>0</MEAN_MOTION_DDOT></tleParameters></data></segment></body></omm>
<omm id="CCSDS_OMM_VERS" version="2.0">
<header><CREATION_DATE/><ORIGINATOR/></header><body><segment><metadata><OBJECT_NAME>SL-16 R/B</OBJECT_NAME><OBJECT_ID>1992-093B</OBJECT_ID><CENTER_NAME>EARTH</CENTER_NAME><REF_FRAME>TEME</REF_FRAME><TIME_SYSTEM>UTC</TIME_SYSTEM><MEAN_ELEMENT_THEORY>SGP4</MEAN_ELEMENT_THEORY></metadata><data><meanElements><EPOCH>2023-02-03T10:59:53.933568</EPOCH><MEAN_MOTION>14.15123211</MEAN_MOTION><ECCENTRICITY>.0006241</ECCENTRICITY><INCLINATION>71.0201</INCLINATION><RA_OF_ASC_NODE>216.3260</RA_OF_ASC_NODE><ARG_OF_PERICENTER>243.9459</ARG_OF_PERICENTER><MEAN_ANOMALY>116.1022</MEAN_ANOMALY></meanElements><tleParameters><EPHEMERIS_TYPE>0</EPHEMERIS_TYPE><CLASSIFICATION_TYPE>U</CLASSIFICATION_TYPE><NORAD_CAT_ID>22285</NORAD_CAT_ID><ELEMENT_SET_NO>999</ELEMENT_SET_NO><REV_AT_EPOCH>55324</REV_AT_EPOCH><BSTAR>.17118E-3</BSTAR><MEAN_MOTION_DOT>.285E-5</MEAN_MOTION_DOT><MEAN_MOTION_DDOT>0</MEAN_MOTION_DDOT></tleParameters></data></segment></body></omm>
<omm id="CCSDS_OMM_VERS" version="2.0">
<header><CREATION_DATE/><ORIGINATOR/></header><body><segment><metadata><OBJECT_NAME>COSMOS 2228</OBJECT_NAME><OBJECT_ID>1992-094A</OBJECT_ID><CENTER_NAME>EARTH</CENTER_NAME><REF_FRAME>TEME</REF_FRAME><TIME_SYSTEM>UTC</TIME_SYSTEM><MEAN_ELEMENT_THEORY>SGP4</MEAN_ELEMENT_THEORY></metadata><data><meanElements><EPOCH>2023-02-03T13:07:52.830336</EPOCH><MEAN_MOTION>14.89363433</MEAN_MOTION><ECCENTRICITY>.0021598</ECCENTRICITY><INCLINATION>82.5174</INCLINATION><RA_OF_ASC_NODE>232.4118</RA_OF_ASC_NODE><ARG_OF_PERICENTER>124.4152</ARG_OF_PERICENTER><MEAN_ANOMALY>235.9113</MEAN_ANOMALY></meanElements><tleParameters><EPHEMERIS_TYPE>0</EPHEMERIS_TYPE><CLASSIFICATION_TYPE>U</CLASSIFICATION_TYPE><NORAD_CAT_ID>22286</NORAD_CAT_ID><ELEMENT_SET_NO>999</ELEMENT_SET_NO><REV_AT_EPOCH>62848</REV_AT_EPOCH><BSTAR>.1732E-3</BSTAR><MEAN_MOTION_DOT>.1675E-4</MEAN_MOTION_DOT><MEAN_MOTION_DDOT>0</MEAN_MOTION_DDOT></tleParameters></data></segment></body></omm>
<omm id="CCSDS_OMM_VERS" version="2.0">
<header><CREATION_DATE/><ORIGINATOR/></header><body><segment><metadata><OBJECT_NAME>SL-16 R/B</OBJECT_NAME><OBJECT_ID>1993-016B</OBJECT_ID><CENTER_NAME>EARTH</CENTER_NAME><REF_FRAME>TEME</REF_FRAME><TIME_SYSTEM>UTC</TIME_SYSTEM><MEAN_ELEMENT_THEORY>SGP4</MEAN_ELEMENT_THEORY></metadata><data><meanElements><EPOCH>2023-02-03T13:00:37.039968</EPOCH><MEAN_MOTION>14.15035813</MEAN_MOTION><ECCENTRICITY>.0012508</ECCENTRICITY><INCLINATION>71.0074</INCLINATION><RA_OF_ASC_NODE>68.2747</RA_OF_ASC_NODE><ARG_OF_PERICENTER>248.3857</ARG_OF_PERICENTER><MEAN_ANOMALY>111.5933</MEAN_ANOMALY></meanElements><tleParameters><EPHEMERIS_TYPE>0</EPHEMERIS_TYPE><CLASSIFICATION_TYPE>U</CLASSIFICATION_TYPE><NORAD_CAT_ID>22566</NORAD_CAT_ID><ELEMENT_SET_NO>999</ELEMENT_SET_NO><REV_AT_EPOCH>54228</REV_AT_EPOCH><BSTAR>.12197E-3</BSTAR><MEAN_MOTION_DOT>.189E-5</MEAN_MOTION_DOT><MEAN_MOTION_DDOT>0</MEAN_MOTION_DDOT></tleParameters></data></segment></body></omm>

</ndm>
