SL-8 R/B                
1 21938U 92020B   23034.58708878  .00000116  00000+0  10511-3 0  9997
2 21938  82.9288 272.9754 0028400 209.8575 159.9196 13.75322571545783
COSMOS 2219             
1 22219U 92076A   23033.98124896  .00000377  00000+0  22390-3 0  9993
2 22219  71.0583 221.0859 0017012 132.1213 228.1359 14.13725592558550
SL-16 R/B               
1 22220U 92076B   23034.41510631 -.00000199  00000+0 -75740-4 0  9992
2 22220  70.9998  48.6320 0012376   6.7772  94.1049 14.16531125561753
COSMOS 2221             
1 22236U 92080A   23034.14203570  .00001455  00000+0  15148-3 0  9994
2 22236  82.5064 275.4333 0017000  16.6268 343.5504 14.89085542612151
SL-16 R/B               
1 22285U 92093B   23034.45826312  .00000285  00000+0  17118-3 0  9990
2 22285  71.0201 216.3260 0006241 243.9459 116.1022 14.15123211553244
COSMOS 2228             
1 22286U 92094A   23034.54713924  .00001675  00000+0  17320-3 0  9995
2 22286  82.5174 232.4118 0021598 124.4152 235.9113 14.89363433607410
SL-16 R/B               
1 22566U 93016B   23034.54209537  .00000189  00000+0  12197-3 0  9997
2 22566  71.0074  68.2747 0012508 248.3857 111.5933 14.15035813542284
